{"fetched_at":"2026-07-19T07:04:50.777Z","source":"https://celestrak.org/NORAD/elements/gp.php?GROUP=planet&FORMAT=JSON","constellation":"pelican","records":[{"OBJECT_NAME":"PELICAN-1","OBJECT_ID":"2023-174AS","EPOCH":"2026-07-18T05:44:10.509792","CLASSIFICATION_TYPE":"U","MEAN_MOTION":15.72007488,"ECCENTRICITY":0.0006337,"INCLINATION":97.4011,"RA_OF_ASC_NODE":301.507,"ARG_OF_PERICENTER":192.5328,"MEAN_ANOMALY":167.5779,"EPHEMERIS_TYPE":0,"NORAD_CAT_ID":58296,"ELEMENT_SET_NO":999,"REV_AT_EPOCH":15104,"BSTAR":0.000041639,"MEAN_MOTION_DOT":0.00005303,"MEAN_MOTION_DDOT":0},{"OBJECT_NAME":"PELICAN-2","OBJECT_ID":"2025-009Y","EPOCH":"2026-07-18T05:19:02.102304","CLASSIFICATION_TYPE":"U","MEAN_MOTION":15.40638954,"ECCENTRICITY":0.0002259,"INCLINATION":97.2052,"RA_OF_ASC_NODE":289.7302,"ARG_OF_PERICENTER":115.4966,"MEAN_ANOMALY":244.6514,"EPHEMERIS_TYPE":0,"NORAD_CAT_ID":62631,"ELEMENT_SET_NO":999,"REV_AT_EPOCH":8433,"BSTAR":0.0000017209,"MEAN_MOTION_DOT":-1e-7,"MEAN_MOTION_DDOT":0},{"OBJECT_NAME":"PELICAN-3","OBJECT_ID":"2025-188A","EPOCH":"2026-07-18T17:40:35.136192","CLASSIFICATION_TYPE":"U","MEAN_MOTION":15.41310931,"ECCENTRICITY":0.0002067,"INCLINATION":97.198,"RA_OF_ASC_NODE":275.4221,"ARG_OF_PERICENTER":115.9271,"MEAN_ANOMALY":244.219,"EPHEMERIS_TYPE":0,"NORAD_CAT_ID":65315,"ELEMENT_SET_NO":999,"REV_AT_EPOCH":5017,"BSTAR":0.00011355,"MEAN_MOTION_DOT":0.00004647,"MEAN_MOTION_DDOT":0},{"OBJECT_NAME":"PELICAN-4","OBJECT_ID":"2025-188B","EPOCH":"2026-07-18T18:11:27.765600","CLASSIFICATION_TYPE":"U","MEAN_MOTION":15.40361927,"ECCENTRICITY":0.0001544,"INCLINATION":97.1987,"RA_OF_ASC_NODE":275.5895,"ARG_OF_PERICENTER":71.7105,"MEAN_ANOMALY":288.431,"EPHEMERIS_TYPE":0,"NORAD_CAT_ID":65316,"ELEMENT_SET_NO":999,"REV_AT_EPOCH":5017,"BSTAR":0.00011217,"MEAN_MOTION_DOT":0.00004446,"MEAN_MOTION_DDOT":0},{"OBJECT_NAME":"PELICAN-5","OBJECT_ID":"2025-276B","EPOCH":"2026-07-18T13:40:01.468416","CLASSIFICATION_TYPE":"U","MEAN_MOTION":15.32747784,"ECCENTRICITY":0.0001417,"INCLINATION":97.4116,"RA_OF_ASC_NODE":274.5459,"ARG_OF_PERICENTER":40.1371,"MEAN_ANOMALY":319.9975,"EPHEMERIS_TYPE":0,"NORAD_CAT_ID":66667,"ELEMENT_SET_NO":999,"REV_AT_EPOCH":3532,"BSTAR":0.00029243,"MEAN_MOTION_DOT":0.00009171,"MEAN_MOTION_DDOT":0},{"OBJECT_NAME":"PELICAN-6","OBJECT_ID":"2025-276AP","EPOCH":"2026-07-18T04:19:17.647968","CLASSIFICATION_TYPE":"U","MEAN_MOTION":15.31566559,"ECCENTRICITY":0.0002782,"INCLINATION":97.3748,"RA_OF_ASC_NODE":274.1402,"ARG_OF_PERICENTER":28.9758,"MEAN_ANOMALY":331.1637,"EPHEMERIS_TYPE":0,"NORAD_CAT_ID":66703,"ELEMENT_SET_NO":999,"REV_AT_EPOCH":3527,"BSTAR":0.00028097,"MEAN_MOTION_DOT":0.00008489,"MEAN_MOTION_DDOT":0},{"OBJECT_NAME":"PELICAN-7","OBJECT_ID":"2026-100AP","EPOCH":"2026-07-18T06:44:41.990784","CLASSIFICATION_TYPE":"U","MEAN_MOTION":15.23689226,"ECCENTRICITY":0.0004315,"INCLINATION":97.3877,"RA_OF_ASC_NODE":96.6797,"ARG_OF_PERICENTER":83.8717,"MEAN_ANOMALY":276.3012,"EPHEMERIS_TYPE":0,"NORAD_CAT_ID":69017,"ELEMENT_SET_NO":999,"REV_AT_EPOCH":1154,"BSTAR":0.000072483,"MEAN_MOTION_DOT":0.00001669,"MEAN_MOTION_DDOT":0},{"OBJECT_NAME":"PELICAN-9","OBJECT_ID":"2026-100AR","EPOCH":"2026-07-16T16:23:19.783968","CLASSIFICATION_TYPE":"U","MEAN_MOTION":15.22656941,"ECCENTRICITY":0.00022486,"INCLINATION":97.3629,"RA_OF_ASC_NODE":94.9294,"ARG_OF_PERICENTER":111.6096,"MEAN_ANOMALY":248.538,"EPHEMERIS_TYPE":0,"NORAD_CAT_ID":69019,"ELEMENT_SET_NO":999,"REV_AT_EPOCH":1129,"BSTAR":0.000051502935,"MEAN_MOTION_DOT":0.0000113,"MEAN_MOTION_DDOT":0}]}
