PELICAN-1               
1 58296U 23174AS  26199.23901053  .00005303  00000+0  41639-4 0  9994
2 58296  97.4011 301.5070 0006337 192.5328 167.5779 15.72007488151044
PELICAN-2               
1 62631U 25009Y   26199.22155211 -.00000010  00000+0  17209-5 0  9995
2 62631  97.2052 289.7302 0002259 115.4966 244.6514 15.40638954 84335
PELICAN-3               
1 65315U 25188A   26199.73651778  .00004647  00000+0  11355-3 0  9993
2 65315  97.1980 275.4221 0002067 115.9271 244.2190 15.41310931 50173
PELICAN-4               
1 65316U 25188B   26199.75796025  .00004446  00000+0  11217-3 0  9995
2 65316  97.1987 275.5895 0001544  71.7105 288.4310 15.40361927 50177
PELICAN-5               
1 66667U 25276B   26199.56946144  .00009171  00000+0  29243-3 0  9999
2 66667  97.4116 274.5459 0001417  40.1371 319.9975 15.32747784 35320
PELICAN-6               
1 66703U 25276AP  26199.18006537  .00008489  00000+0  28097-3 0  9998
2 66703  97.3748 274.1402 0002782  28.9758 331.1637 15.31566559 35277
PELICAN-7               
1 69017U 26100AP  26199.28104156  .00001669  00000+0  72483-4 0  9995
2 69017  97.3877  96.6797 0004315  83.8717 276.3012 15.23689226 11543
PELICAN-9               
1 69019U 26100AR  26197.68286787  .00001130  00000+0  51503-4 0  9993
2 69019  97.3629  94.9294 0002248 111.6096 248.5380 15.22656941 11294
